UNKNOWN                 
1 85106U          26032.27003608  .00000719  00000+0  83204-3 0  9995
2 85106 100.0528 140.6157 0009616 239.5469 147.5923 13.72979239610002
UNKNOWN                 
1 85151U          26030.59124835  .00027278  00000+0  34907-2 0  9998
2 85151  98.4052 261.8611 0011006 355.2787   4.8318 14.81256755486758
UNKNOWN                 
1 85210U          26032.63445696  .00000632  00000+0  63422-3 0  9992
2 85210  99.8576 180.0207 0218693 184.1362 240.1731 13.71641787609136
UNKNOWN                 
1 85217U          26031.70666137  .00001958  00000+0  52434-3 0  9994
2 85217  98.0267 127.8390 0206437 337.5861  21.6403 14.37458281635038
UNKNOWN                 
1 85237U          26023.60039772  .00005306  00000+0  11008-2 0  9997
2 85237  65.5329 105.0204 0514900   8.4704 352.4654 14.01306243614218
UNKNOWN                 
1 85238U          26030.57208095  .00000068  00000+0  91158-4 0  9994
2 85238  99.0660 323.3671 0064269  68.9259 104.3234 13.88353007617615
UNKNOWN                 
1 85246U          26032.44044221  .00000960  00000+0  35333-3 0  9993
2 85246  97.9885  36.1838 0223274 154.1469 207.1072 14.21673174630275
UNKNOWN                 
1 85373U          26032.36260742  .00001973  00000+0  13563-2 0  9998
2 85373 100.4271  80.4572 0051174 106.4557 319.5280 14.00260891619213
UNKNOWN                 
1 85430U          26026.68381291  .01102801  65252-3  17938-2 0  9990
2 85430  53.2147 236.7622 0003262 171.8494 188.2593 16.02882600    19
UNKNOWN                 
1 87014U          26032.41619205  .00002320  00000+0  35763-2 0  9993
2 87014 100.4848   4.5172 0045971 111.6645  42.0097 13.52143392597765
UNKNOWN                 
1 87029U          26025.05506437  .00001565  00000+0  97435-3 0  9998
2 87029  98.7531  63.7773 0083011 128.8755 231.9856 14.04608677599081
UNKNOWN                 
1 87042U          26031.09649977  .00000863  00000+0  53601-3 0  9998
2 87042  98.7091  77.5230 0042077 316.1519  43.6313 14.07211915560908
UNKNOWN                 
1 87051U          26031.68454182  .00001744  00000+0  62955-3 0  9996
2 87051  65.7296 135.2523 0710430 118.5226 248.9225 13.46145061595304
UNKNOWN                 
1 87054U          26031.64180767  .00001820  00000+0  10361-2 0  9998
2 87054 100.0923 282.1925 0012082 208.1615 151.8900 14.11315500623361
UNKNOWN                 
1 87071U          26030.29007401  .00009126  00000+0  32844-2 0  9997
2 87071  61.2224 127.4912 0473404 261.8611  92.8475 13.86164797609210
UNKNOWN                 
1 87129U          26027.72949371  .00000247  00000+0  21176-2 0  9997
2 87129 102.2598 124.2455 0027269 356.6348   3.4529 12.42837985552385
UNKNOWN                 
1 87159U          26032.52954121  .00001416  00000+0  16389-2 0  9992
2 87159  90.3467  71.2370 0106980 107.0563 254.2350 13.66214892563622
