[{"OBJECT_NAME":"UNKNOWN","OBJECT_ID":"","EPOCH":"2026-02-01T06:28:51.117312","MEAN_MOTION":13.72979239,"ECCENTRICITY":0.0009616,"INCLINATION":100.0528,"RA_OF_ASC_NODE":140.6157,"ARG_OF_PERICENTER":239.5469,"MEAN_ANOMALY":147.5923,"EPHEMERIS_TYPE":0,"CLASSIFICATION_TYPE":"U","NORAD_CAT_ID":85106,"ELEMENT_SET_NO":999,"REV_AT_EPOCH":61000,"BSTAR":0.00083204,"MEAN_MOTION_DOT":7.19e-6,"MEAN_MOTION_DDOT":0},{"OBJECT_NAME":"UNKNOWN","OBJECT_ID":"","EPOCH":"2026-01-30T14:11:23.857440","MEAN_MOTION":14.81256755,"ECCENTRICITY":0.0011006,"INCLINATION":98.4052,"RA_OF_ASC_NODE":261.8611,"ARG_OF_PERICENTER":355.2787,"MEAN_ANOMALY":4.8318,"EPHEMERIS_TYPE":0,"CLASSIFICATION_TYPE":"U","NORAD_CAT_ID":85151,"ELEMENT_SET_NO":999,"REV_AT_EPOCH":48675,"BSTAR":0.0034907,"MEAN_MOTION_DOT":0.00027278,"MEAN_MOTION_DDOT":0},{"OBJECT_NAME":"UNKNOWN","OBJECT_ID":"","EPOCH":"2026-02-01T15:13:37.081344","MEAN_MOTION":13.71641787,"ECCENTRICITY":0.0218693,"INCLINATION":99.8576,"RA_OF_ASC_NODE":180.0207,"ARG_OF_PERICENTER":184.1362,"MEAN_ANOMALY":240.1731,"EPHEMERIS_TYPE":0,"CLASSIFICATION_TYPE":"U","NORAD_CAT_ID":85210,"ELEMENT_SET_NO":999,"REV_AT_EPOCH":60913,"BSTAR":0.00063422,"MEAN_MOTION_DOT":6.32e-6,"MEAN_MOTION_DDOT":0},{"OBJECT_NAME":"UNKNOWN","OBJECT_ID":"","EPOCH":"2026-01-31T16:57:35.542368","MEAN_MOTION":14.37458281,"ECCENTRICITY":0.0206437,"INCLINATION":98.0267,"RA_OF_ASC_NODE":127.839,"ARG_OF_PERICENTER":337.5861,"MEAN_ANOMALY":21.6403,"EPHEMERIS_TYPE":0,"CLASSIFICATION_TYPE":"U","NORAD_CAT_ID":85217,"ELEMENT_SET_NO":999,"REV_AT_EPOCH":63503,"BSTAR":0.00052434,"MEAN_MOTION_DOT":1.958e-5,"MEAN_MOTION_DDOT":0},{"OBJECT_NAME":"UNKNOWN","OBJECT_ID":"","EPOCH":"2026-01-23T14:24:34.363008","MEAN_MOTION":14.01306243,"ECCENTRICITY":0.05149,"INCLINATION":65.5329,"RA_OF_ASC_NODE":105.0204,"ARG_OF_PERICENTER":8.4704,"MEAN_ANOMALY":352.4654,"EPHEMERIS_TYPE":0,"CLASSIFICATION_TYPE":"U","NORAD_CAT_ID":85237,"ELEMENT_SET_NO":999,"REV_AT_EPOCH":61421,"BSTAR":0.0011008,"MEAN_MOTION_DOT":5.306e-5,"MEAN_MOTION_DDOT":0},{"OBJECT_NAME":"UNKNOWN","OBJECT_ID":"","EPOCH":"2026-01-30T13:43:47.794080","MEAN_MOTION":13.88353007,"ECCENTRICITY":0.0064269,"INCLINATION":99.066,"RA_OF_ASC_NODE":323.3671,"ARG_OF_PERICENTER":68.9259,"MEAN_ANOMALY":104.3234,"EPHEMERIS_TYPE":0,"CLASSIFICATION_TYPE":"U","NORAD_CAT_ID":85238,"ELEMENT_SET_NO":999,"REV_AT_EPOCH":61761,"BSTAR":9.1158e-5,"MEAN_MOTION_DOT":6.8e-7,"MEAN_MOTION_DDOT":0},{"OBJECT_NAME":"UNKNOWN","OBJECT_ID":"","EPOCH":"2026-02-01T10:34:14.206944","MEAN_MOTION":14.21673174,"ECCENTRICITY":0.0223274,"INCLINATION":97.9885,"RA_OF_ASC_NODE":36.1838,"ARG_OF_PERICENTER":154.1469,"MEAN_ANOMALY":207.1072,"EPHEMERIS_TYPE":0,"CLASSIFICATION_TYPE":"U","NORAD_CAT_ID":85246,"ELEMENT_SET_NO":999,"REV_AT_EPOCH":63027,"BSTAR":0.00035333,"MEAN_MOTION_DOT":9.6e-6,"MEAN_MOTION_DDOT":0},{"OBJECT_NAME":"UNKNOWN","OBJECT_ID":"","EPOCH":"2026-02-01T08:42:09.281088","MEAN_MOTION":14.00260891,"ECCENTRICITY":0.0051174,"INCLINATION":100.4271,"RA_OF_ASC_NODE":80.4572,"ARG_OF_PERICENTER":106.4557,"MEAN_ANOMALY":319.528,"EPHEMERIS_TYPE":0,"CLASSIFICATION_TYPE":"U","NORAD_CAT_ID":85373,"ELEMENT_SET_NO":999,"REV_AT_EPOCH":61921,"BSTAR":0.0013563,"MEAN_MOTION_DOT":1.973e-5,"MEAN_MOTION_DDOT":0},{"OBJECT_NAME":"UNKNOWN","OBJECT_ID":"","EPOCH":"2026-01-26T16:24:41.435424","MEAN_MOTION":16.028826,"ECCENTRICITY":0.0003262,"INCLINATION":53.2147,"RA_OF_ASC_NODE":236.7622,"ARG_OF_PERICENTER":171.8494,"MEAN_ANOMALY":188.2593,"EPHEMERIS_TYPE":0,"CLASSIFICATION_TYPE":"U","NORAD_CAT_ID":85430,"ELEMENT_SET_NO":999,"REV_AT_EPOCH":1,"BSTAR":0.0017938,"MEAN_MOTION_DOT":0.01102801,"MEAN_MOTION_DDOT":0.00065252},{"OBJECT_NAME":"UNKNOWN","OBJECT_ID":"","EPOCH":"2026-02-01T09:59:18.993120","MEAN_MOTION":13.52143392,"ECCENTRICITY":0.0045971,"INCLINATION":100.4848,"RA_OF_ASC_NODE":4.5172,"ARG_OF_PERICENTER":111.6645,"MEAN_ANOMALY":42.0097,"EPHEMERIS_TYPE":0,"CLASSIFICATION_TYPE":"U","NORAD_CAT_ID":87014,"ELEMENT_SET_NO":999,"REV_AT_EPOCH":59776,"BSTAR":0.0035763,"MEAN_MOTION_DOT":2.32e-5,"MEAN_MOTION_DDOT":0},{"OBJECT_NAME":"UNKNOWN","OBJECT_ID":"","EPOCH":"2026-01-25T01:19:17.561568","MEAN_MOTION":14.04608677,"ECCENTRICITY":0.0083011,"INCLINATION":98.7531,"RA_OF_ASC_NODE":63.7773,"ARG_OF_PERICENTER":128.8755,"MEAN_ANOMALY":231.9856,"EPHEMERIS_TYPE":0,"CLASSIFICATION_TYPE":"U","NORAD_CAT_ID":87029,"ELEMENT_SET_NO":999,"REV_AT_EPOCH":59908,"BSTAR":0.00097435,"MEAN_MOTION_DOT":1.565e-5,"MEAN_MOTION_DDOT":0},{"OBJECT_NAME":"UNKNOWN","OBJECT_ID":"","EPOCH":"2026-01-31T02:18:57.580128","MEAN_MOTION":14.07211915,"ECCENTRICITY":0.0042077,"INCLINATION":98.7091,"RA_OF_ASC_NODE":77.523,"ARG_OF_PERICENTER":316.1519,"MEAN_ANOMALY":43.6313,"EPHEMERIS_TYPE":0,"CLASSIFICATION_TYPE":"U","NORAD_CAT_ID":87042,"ELEMENT_SET_NO":999,"REV_AT_EPOCH":56090,"BSTAR":0.00053601,"MEAN_MOTION_DOT":8.63e-6,"MEAN_MOTION_DDOT":0},{"OBJECT_NAME":"UNKNOWN","OBJECT_ID":"","EPOCH":"2026-01-31T16:25:44.413248","MEAN_MOTION":13.46145061,"ECCENTRICITY":0.071043,"INCLINATION":65.7296,"RA_OF_ASC_NODE":135.2523,"ARG_OF_PERICENTER":118.5226,"MEAN_ANOMALY":248.9225,"EPHEMERIS_TYPE":0,"CLASSIFICATION_TYPE":"U","NORAD_CAT_ID":87051,"ELEMENT_SET_NO":999,"REV_AT_EPOCH":59530,"BSTAR":0.00062955,"MEAN_MOTION_DOT":1.744e-5,"MEAN_MOTION_DDOT":0},{"OBJECT_NAME":"UNKNOWN","OBJECT_ID":"","EPOCH":"2026-01-31T15:24:12.182688","MEAN_MOTION":14.113155,"ECCENTRICITY":0.0012082,"INCLINATION":100.0923,"RA_OF_ASC_NODE":282.1925,"ARG_OF_PERICENTER":208.1615,"MEAN_ANOMALY":151.89,"EPHEMERIS_TYPE":0,"CLASSIFICATION_TYPE":"U","NORAD_CAT_ID":87054,"ELEMENT_SET_NO":999,"REV_AT_EPOCH":62336,"BSTAR":0.0010361,"MEAN_MOTION_DOT":1.82e-5,"MEAN_MOTION_DDOT":0},{"OBJECT_NAME":"UNKNOWN","OBJECT_ID":"","EPOCH":"2026-01-30T06:57:42.394464","MEAN_MOTION":13.86164797,"ECCENTRICITY":0.0473404,"INCLINATION":61.2224,"RA_OF_ASC_NODE":127.4912,"ARG_OF_PERICENTER":261.8611,"MEAN_ANOMALY":92.8475,"EPHEMERIS_TYPE":0,"CLASSIFICATION_TYPE":"U","NORAD_CAT_ID":87071,"ELEMENT_SET_NO":999,"REV_AT_EPOCH":60921,"BSTAR":0.0032844,"MEAN_MOTION_DOT":9.126e-5,"MEAN_MOTION_DDOT":0},{"OBJECT_NAME":"UNKNOWN","OBJECT_ID":"","EPOCH":"2026-01-27T17:30:28.256544","MEAN_MOTION":12.42837985,"ECCENTRICITY":0.0027269,"INCLINATION":102.2598,"RA_OF_ASC_NODE":124.2455,"ARG_OF_PERICENTER":356.6348,"MEAN_ANOMALY":3.4529,"EPHEMERIS_TYPE":0,"CLASSIFICATION_TYPE":"U","NORAD_CAT_ID":87129,"ELEMENT_SET_NO":999,"REV_AT_EPOCH":55238,"BSTAR":0.0021176,"MEAN_MOTION_DOT":2.47e-6,"MEAN_MOTION_DDOT":0},{"OBJECT_NAME":"UNKNOWN","OBJECT_ID":"","EPOCH":"2026-02-01T12:42:32.360544","MEAN_MOTION":13.66214892,"ECCENTRICITY":0.010698,"INCLINATION":90.3467,"RA_OF_ASC_NODE":71.237,"ARG_OF_PERICENTER":107.0563,"MEAN_ANOMALY":254.235,"EPHEMERIS_TYPE":0,"CLASSIFICATION_TYPE":"U","NORAD_CAT_ID":87159,"ELEMENT_SET_NO":999,"REV_AT_EPOCH":56362,"BSTAR":0.0016389,"MEAN_MOTION_DOT":1.416e-5,"MEAN_MOTION_DDOT":0}]
